OBJECT_NAME,OBJECT_ID,EPOCH,MEAN_MOTION,ECCENTRICITY,INCLINATION,RA_OF_ASC_NODE,ARG_OF_PERICENTER,MEAN_ANOMALY,EPHEMERIS_TYPE,CLASSIFICATION_TYPE,NORAD_CAT_ID,ELEMENT_SET_NO,REV_AT_EPOCH,BSTAR,MEAN_MOTION_DOT,MEAN_MOTION_DDOT
IRIDIUM 138,2017-083B,2026-07-13T19:53:03.143040,14.34218321,.000206,86.3999,310.5783,91.9349,268.2083,0,U,43071,999,44795,.41149E-4,.135E-5,0
IRIDIUM 116,2017-083C,2026-07-13T19:07:23.070720,14.34217419,.0002427,86.3984,310.8778,99.0489,261.0982,0,U,43072,999,44798,.34346E-4,.116E-5,0
IRIDIUM 130,2017-083D,2026-07-13T20:02:11.414112,14.34217605,.0002236,86.3992,311.1397,100.8684,259.2764,0,U,43073,999,44793,.39703E-4,.131E-5,0
IRIDIUM 151,2017-083E,2026-07-13T19:25:39.243072,14.34217870,.0002239,86.3986,310.9307,95.2353,264.9098,0,U,43074,999,44795,.41445E-4,.136E-5,0
IRIDIUM 134,2017-083F,2026-07-13T20:20:27.189024,14.34218094,.0002199,86.3987,310.9232,95.3757,264.7689,0,U,43075,999,44792,.26491E-4,.94E-6,0
IRIDIUM 137,2017-083G,2026-07-13T20:38:43.294848,14.34218270,.0002664,86.3989,311.0114,93.4500,266.7000,0,U,43076,999,44799,.36949E-4,.123E-5,0
IRIDIUM 141,2017-083H,2026-07-13T20:29:35.149056,14.34217594,.0002168,86.3984,310.8430,92.9990,267.1453,0,U,43077,999,44799,.22479E-4,.83E-6,0
IRIDIUM 153,2017-083J,2026-07-13T17:40:15.412800,14.34217751,.0002108,86.3960,279.3718,94.2733,265.8704,0,U,43078,999,44908,.15958E-4,.64E-6,0
IRIDIUM 131,2017-083K,2026-07-13T20:11:19.246272,14.34217941,.0002252,86.3991,311.0359,93.1963,266.9490,0,U,43079,999,44792,.17373E-4,.68E-6,0
IRIDIUM 144,2018-030A,2026-07-13T17:49:23.452320,14.34217745,.0002369,86.3958,279.2976,97.0397,263.1069,0,U,43249,999,43394,.11397E-4,.52E-6,0
IRIDIUM 149,2018-030B,2026-07-13T17:58:31.470240,14.34217849,.0002261,86.3958,279.2616,93.2548,266.8906,0,U,43250,999,43396,.27587E-4,.97E-6,0
IRIDIUM 157,2018-030C,2026-07-13T18:25:55.669152,14.34217651,.000226,86.3961,279.3076,94.1514,265.9940,0,U,43251,999,43394,.4007E-4,.132E-5,0
IRIDIUM 140,2018-030D,2026-07-13T18:53:19.648608,14.34217270,.0002236,86.3959,279.3121,95.1370,265.0081,0,U,43252,999,43400,.43875E-4,.143E-5,0
IRIDIUM 145,2018-030E,2026-07-13T18:35:03.357888,14.34217221,.0002485,86.3959,279.2891,99.3709,260.7767,0,U,43253,999,43393,.3455E-4,.117E-5,0
IRIDIUM 146,2018-030F,2026-07-13T18:07:39.406080,14.34217513,.0002366,86.3960,279.3098,96.8211,263.3254,0,U,43254,999,43394,.17866E-4,.7E-6,0
IRIDIUM 148,2018-030G,2026-07-13T19:02:27.719232,14.34217670,.0002338,86.3961,279.3373,93.4830,266.6633,0,U,43255,999,43398,.42639E-4,.139E-5,0
IRIDIUM 142,2018-030H,2026-07-13T18:16:47.469792,14.34217974,.0002405,86.3955,279.2387,97.4581,262.6888,0,U,43256,999,43394,.27563E-4,.97E-6,0
IRIDIUM 150,2018-030J,2026-07-13T17:31:07.194432,14.34216312,.0002138,86.3957,279.3691,94.1940,265.9500,0,U,43257,999,43396,-.76088E-4,-.193E-5,0
IRIDIUM 143,2018-030K,2026-07-13T18:44:11.529600,14.34217266,.0002321,86.3963,279.4410,95.5277,264.6183,0,U,43258,999,43390,.11951E-4,.53E-6,0
IRIDIUM 161,2018-047C,2026-07-13T19:00:31.010112,14.43275337,.0002282,86.4466,77.3455,81.3669,278.7790,0,U,43478,999,42897,.46819E-4,.178E-5,0
IRIDIUM 152,2018-047D,2026-07-13T18:04:54.420960,14.34219878,.0002134,86.3938,77.2227,83.5298,276.6141,0,U,43479,999,42629,.46482E-4,.15E-5,0
IRIDIUM 147,2018-047E,2026-07-13T18:14:02.186592,14.34217437,.0002272,86.3939,77.2257,88.6019,271.5437,0,U,43480,999,42629,.35966E-4,.121E-5,0
IRIDIUM 110,2018-047F,2026-07-13T18:23:10.288320,14.34218166,.0002137,86.3942,77.3157,76.6339,283.5095,0,U,43481,999,42628,.45065E-4,.146E-5,0
IRIDIUM 162,2018-047G,2026-07-13T17:11:37.165632,14.43278018,.0002205,86.4460,77.2675,86.3010,273.8443,0,U,43482,999,42895,.54996E-4,.205E-5,0
IRIDIUM 160,2018-061A,2026-07-13T15:24:42.357888,14.34216653,.0002215,86.3940,45.7316,85.8140,274.3308,0,U,43569,999,41716,.42959E-4,.14E-5,0
IRIDIUM 166,2018-061B,2026-07-13T16:01:14.522016,14.34217402,.0002258,86.3940,45.6711,89.8935,270.2519,0,U,43570,999,41719,.44295E-5,.32E-6,0
IRIDIUM 158,2018-061C,2026-07-13T15:15:34.490304,14.34217446,.0002056,86.3939,45.6943,86.5289,273.6141,0,U,43571,999,41715,.13105E-4,.56E-6,0
IRIDIUM 165,2018-061D,2026-07-13T15:52:06.492000,14.34217032,.0002281,86.3938,45.7301,91.4918,268.6539,0,U,43572,999,41718,.473E-5,.33E-6,0
IRIDIUM 155,2018-061E,2026-07-13T14:57:18.455328,14.34217369,.0002095,86.3939,45.6144,89.0959,271.0477,0,U,43573,999,41714,.2127E-4,.79E-6,0
IRIDIUM 154,2018-061F,2026-07-13T16:10:22.413792,14.34217679,.0002301,86.3939,45.7280,90.2422,269.9037,0,U,43574,999,41720,.31796E-4,.109E-5,0
IRIDIUM 163,2018-061G,2026-07-13T15:42:58.436064,14.34217526,.0002149,86.3936,45.6504,85.6328,274.5113,0,U,43575,999,41717,.21951E-4,.81E-6,0
