IRIDIUM 138             
1 43071U 17083B   26194.82850860  .00000135  00000+0  41149-4 0  9994
2 43071  86.3999 310.5783 0002060  91.9349 268.2083 14.34218321447958
IRIDIUM 116             
1 43072U 17083C   26194.79679480  .00000116  00000+0  34346-4 0  9998
2 43072  86.3984 310.8778 0002427  99.0489 261.0982 14.34217419447980
IRIDIUM 130             
1 43073U 17083D   26194.83485433  .00000131  00000+0  39703-4 0  9996
2 43073  86.3992 311.1397 0002236 100.8684 259.2764 14.34217605447936
IRIDIUM 151             
1 43074U 17083E   26194.80948198  .00000136  00000+0  41445-4 0  9997
2 43074  86.3986 310.9307 0002239  95.2353 264.9098 14.34217870447950
IRIDIUM 134             
1 43075U 17083F   26194.84753691  .00000094  00000+0  26491-4 0  9991
2 43075  86.3987 310.9232 0002199  95.3757 264.7689 14.34218094447923
IRIDIUM 137             
1 43076U 17083G   26194.86022332  .00000123  00000+0  36949-4 0  9997
2 43076  86.3989 311.0114 0002664  93.4500 266.7000 14.34218270447991
IRIDIUM 141             
1 43077U 17083H   26194.85387904  .00000083  00000+0  22479-4 0  9994
2 43077  86.3984 310.8430 0002168  92.9990 267.1453 14.34217594447996
IRIDIUM 153             
1 43078U 17083J   26194.73628950  .00000064  00000+0  15958-4 0  9994
2 43078  86.3960 279.3718 0002108  94.2733 265.8704 14.34217751449084
IRIDIUM 131             
1 43079U 17083K   26194.84119498  .00000068  00000+0  17373-4 0  9996
2 43079  86.3991 311.0359 0002252  93.1963 266.9490 14.34217941447923
IRIDIUM 144             
1 43249U 18030A   26194.74263255  .00000052  00000+0  11397-4 0  9991
2 43249  86.3958 279.2976 0002369  97.0397 263.1069 14.34217745433948
IRIDIUM 149             
1 43250U 18030B   26194.74897535  .00000097  00000+0  27587-4 0  9994
2 43250  86.3958 279.2616 0002261  93.2548 266.8906 14.34217849433965
IRIDIUM 157             
1 43251U 18030C   26194.76800543  .00000132  00000+0  40070-4 0  9992
2 43251  86.3961 279.3076 0002260  94.1514 265.9940 14.34217651433940
IRIDIUM 140             
1 43252U 18030D   26194.78703297  .00000143  00000+0  43875-4 0  9991
2 43252  86.3959 279.3121 0002236  95.1370 265.0081 14.34217270434005
IRIDIUM 145             
1 43253U 18030E   26194.77434442  .00000117  00000+0  34550-4 0  9995
2 43253  86.3959 279.2891 0002485  99.3709 260.7767 14.34217221433937
IRIDIUM 146             
1 43254U 18030F   26194.75531720  .00000070  00000+0  17866-4 0  9990
2 43254  86.3960 279.3098 0002366  96.8211 263.3254 14.34217513433943
IRIDIUM 148             
1 43255U 18030G   26194.79337638  .00000139  00000+0  42639-4 0  9999
2 43255  86.3961 279.3373 0002338  93.4830 266.6633 14.34217670433985
IRIDIUM 142             
1 43256U 18030H   26194.76166053  .00000097  00000+0  27563-4 0  9990
2 43256  86.3955 279.2387 0002405  97.4581 262.6888 14.34217974433946
IRIDIUM 150             
1 43257U 18030J   26194.72994438 -.00000193  00000+0 -76088-4 0  9998
2 43257  86.3957 279.3691 0002138  94.1940 265.9500 14.34216312433968
IRIDIUM 143             
1 43258U 18030K   26194.78068900  .00000053  00000+0  11951-4 0  9992
2 43258  86.3963 279.4410 0002321  95.5277 264.6183 14.34217266433904
IRIDIUM 161             
1 43478U 18047C   26194.79202558  .00000178  00000+0  46819-4 0  9993
2 43478  86.4466  77.3455 0002282  81.3669 278.7790 14.43275337428979
IRIDIUM 152             
1 43479U 18047D   26194.75340765  .00000150  00000+0  46482-4 0  9999
2 43479  86.3938  77.2227 0002134  83.5298 276.6141 14.34219878426295
IRIDIUM 147             
1 43480U 18047E   26194.75974753  .00000121  00000+0  35966-4 0  9994
2 43480  86.3939  77.2257 0002272  88.6019 271.5437 14.34217437426292
IRIDIUM 110             
1 43481U 18047F   26194.76609130  .00000146  00000+0  45065-4 0  9998
2 43481  86.3942  77.3157 0002137  76.6339 283.5095 14.34218166426281
IRIDIUM 162             
1 43482U 18047G   26194.71640238  .00000205  00000+0  54996-4 0  9997
2 43482  86.4460  77.2675 0002205  86.3010 273.8443 14.43278018428959
IRIDIUM 160             
1 43569U 18061A   26194.64215692  .00000140  00000+0  42959-4 0  9997
2 43569  86.3940  45.7316 0002215  85.8140 274.3308 14.34216653417162
IRIDIUM 166             
1 43570U 18061B   26194.66752919  .00000032  00000+0  44295-5 0  9995
2 43570  86.3940  45.6711 0002258  89.8935 270.2519 14.34217402417190
IRIDIUM 158             
1 43571U 18061C   26194.63581586  .00000056  00000+0  13105-4 0  9994
2 43571  86.3939  45.6943 0002056  86.5289 273.6141 14.34217446417150
IRIDIUM 165             
1 43572U 18061D   26194.66118625  .00000033  00000+0  47300-5 0  9998
2 43572  86.3938  45.7301 0002281  91.4918 268.6539 14.34217032417182
IRIDIUM 155             
1 43573U 18061E   26194.62313027  .00000079  00000+0  21270-4 0  9995
2 43573  86.3939  45.6144 0002095  89.0959 271.0477 14.34217369417147
IRIDIUM 154             
1 43574U 18061F   26194.67387053  .00000109  00000+0  31796-4 0  9999
2 43574  86.3939  45.7280 0002301  90.2422 269.9037 14.34217679417208
IRIDIUM 163             
1 43575U 18061G   26194.65484301  .00000081  00000+0  21951-4 0  9993
2 43575  86.3936  45.6504 0002149  85.6328 274.5113 14.34217526417171
